{
    "links": {
        "self": "http://www.neowsapp.com/rest/v1/neo/3529056?api_key=iIulBulltgU6a56xZRHN4H3l9WmuAYTsLGpBGhQ2"
    },
    "id": "3529056",
    "neo_reference_id": "3529056",
    "name": "(2010 LM34)",
    "designation": "2010 LM34",
    "nasa_jpl_url": "http://ssd.jpl.nasa.gov/sbdb.cgi?sstr=3529056",
    "absolute_magnitude_h": 23.3,
    "estimated_diameter": {
        "kilometers": {
            "estimated_diameter_min": 0.058150704,
            "estimated_diameter_max": 0.130028927
        },
        "meters": {
            "estimated_diameter_min": 58.1507039646,
            "estimated_diameter_max": 130.0289270043
        },
        "miles": {
            "estimated_diameter_min": 0.0361331611,
            "estimated_diameter_max": 0.0807962044
        },
        "feet": {
            "estimated_diameter_min": 190.7831555951,
            "estimated_diameter_max": 426.6041048727
        }
    },
    "is_potentially_hazardous_asteroid": false,
    "close_approach_data": [
        {
            "close_approach_date": "1906-05-01",
            "close_approach_date_full": "1906-May-01 03:37",
            "epoch_date_close_approach": -2009305380000,
            "relative_velocity": {
                "kilometers_per_second": "9.1546816026",
                "kilometers_per_hour": "32956.8537692414",
                "miles_per_hour": "20478.1072767822"
            },
            "miss_distance": {
                "astronomical": "1.7194432636",
                "lunar": "668.8634295404",
                "kilometers": "257225049.820408532",
                "miles": "159832234.4392084616"
            },
            "orbiting_body": "Juptr"
        },
        {
            "close_approach_date": "2010-06-09",
            "close_approach_date_full": "2010-Jun-09 01:14",
            "epoch_date_close_approach": 1276046040000,
            "relative_velocity": {
                "kilometers_per_second": "15.4814905717",
                "kilometers_per_hour": "55733.3660580984",
                "miles_per_hour": "34630.5462598223"
            },
            "miss_distance": {
                "astronomical": "0.0740564284",
                "lunar": "28.8079506476",
                "kilometers": "11078683.948447508",
                "miles": "6883974.9914032904"
            },
            "orbiting_body": "Earth"
        }
    ],
    "orbital_data": {
        "orbit_id": "16",
        "orbit_determination_date": "2017-04-06 08:57:22",
        "first_observation_date": "2010-06-10",
        "last_observation_date": "2010-07-10",
        "data_arc_in_days": 30,
        "observations_used": 74,
        "orbit_uncertainty": "8",
        "minimum_orbit_intersection": ".0718536",
        "jupiter_tisserand_invariant": "2.959",
        "epoch_osculation": "2455361.5",
        "eccentricity": ".6046013229495273",
        "semi_major_axis": "2.726027621650188",
        "inclination": "24.40158913446663",
        "ascending_node_longitude": "255.1185917732262",
        "orbital_period": "1643.969685346084",
        "perihelion_distance": "1.077867715203531",
        "perihelion_argument": "12.90388932855445",
        "aphelion_distance": "4.374187528096845",
        "perihelion_time": "2455366.324806571531",
        "mean_anomaly": "358.9434535312703",
        "mean_motion": ".218982140126394",
        "equinox": "J2000",
        "orbit_class": {
            "orbit_class_type": "AMO",
            "orbit_class_description": "Near-Earth asteroid orbits similar to that of 1221 Amor",
            "orbit_class_range": "1.017 AU < q (perihelion) < 1.3 AU"
        }
    },
    "is_sentry_object": false
}